CSS (TIANHE)            
1 48274U 21035A   26199.86839132  .00011657  00000+0  15417-3 0  9993
2 48274  41.4683 129.5686 0002055 305.4241  54.6405 15.58184623298119
